NOAA 10                 
1 16969U 86073A   24191.55762951  .00000202  00000+0  98060-4 0  9992
2 16969  98.6413 177.2809 0010908 266.7805 203.4277 14.28644131968608
NOAA 11                 
1 19531U 88089A   24190.91675836  .00000115  00000+0  79914-4 0  9993
2 19531  98.5192 152.5254 0011271 166.5086 193.6392 14.15549062847260
NOAA 12                 
1 21263U 91032A   24191.23319111  .00000166  00000+0  86881-4 0  9994
2 21263  98.5579 181.8521 0012656 300.1985  59.7942 14.26333010724283
NOAA 13                 
1 22739U 93050A   24191.51791788  .00000192  00000+0  12506-3 0  9991
2 22739  98.6069 148.1751 0009462 357.1621   2.9497 14.13234679593644
NOAA 14                 
1 23455U 94089A   24191.23267869  .00000094  00000+0  70544-4 0  9995
2 23455  98.4323 186.0164 0008734 325.5062  34.5545 14.14407218523357
NOAA 15                 
1 25338U 98030A   24191.53989026  .00000297  00000+0  14071-3 0  9993
2 25338  98.5673 218.1991 0009103 257.7419 102.2742 14.26622748360627
NOAA 16                 
1 26536U 00055A   24190.95465037  .00000141  00000+0  96539-4 0  9998
2 26536  98.5299 229.5563 0010713 167.3700 192.7744 14.13597369523657
NOAA 17                 
1 27453U 02032A   24191.52802161  .00000255  00000+0  12672-3 0  9992
2 27453  98.7637 142.1082 0010614 241.7715 118.2393 14.25609145146140
NOAA 18                 
1 28654U 05018A   24191.50969200  .00000270  00000+0  16760-3 0  9998
2 28654  98.8742 268.2895 0014087   4.8031 355.3274 14.13248506986412
NOAA 19                 
1 33591U 09005A   24191.46425586  .00000259  00000+0  16310-3 0  9991
2 33591  99.0459 247.4980 0013124 226.2219 133.7867 14.13043329794777
SUOMI NPP               
1 37849U 11061A   24191.52721156  .00000132  00000+0  83466-4 0  9992
2 37849  98.7222 129.1723 0001148 128.9871 231.1408 14.19526869658030
NOAA 20 (JPSS-1)        
1 43013U 17073A   24191.54440604  .00000099  00000+0  67619-4 0  9993
2 43013  98.7064 129.0922 0001874 124.0075 236.1279 14.19540775344072
NOAA 21 (JPSS-2)        
1 54234U 22150A   24190.87522494  .00000147  00000+0  90539-4 0  9996
2 54234  98.7518 128.5153 0001966  83.8153 276.3246 14.19535576 86058
ISS (ZARYA)             
1 25544U 98067A   24191.47708049  .00011765  00000+0  21577-3 0  9990
2 25544  51.6384 204.9033 0010507  46.5485 119.1560 15.49695979462004
CSS (TIANHE)            
1 48274U 21035A   24191.33982974  .00032835  00000+0  34335-3 0  9999
2 48274  41.4687 307.8940 0004165   0.2502 359.8340 15.63748828182569
ISS (NAUKA)             
1 49044U 21066A   24190.54461732  .00011798  00000+0  21655-3 0  9991
2 49044  51.6365 209.5245 0010259  43.7962 316.3838 15.49672255461081
FREGAT DEB              
1 49271U 11037PF  24190.54973662  .00031682  00000+0  61295-1 0  9996
2 49271  51.6776 286.5499 1001434 171.8645 189.9888 12.18645417137804
CSS (WENTIAN)           
1 53239U 22085A   24190.63730000  .00032368  00000+0  33912-3 0  9996
2 53239  41.4689 312.1877 0004269 355.8986   4.1818 15.63704787102474
CSS (MENGTIAN)          
1 54216U 22143A   24190.63730000  .00032368  00000+0  33912-3 0  9997
2 54216  41.4689 312.1877 0004269 355.8986   4.1818 15.63704787 93626
TIANZHOU-7              
1 58811U 24013A   24190.63730000  .00032368  00000+0  33912-3 0  9990
2 58811  41.4689 312.1877 0004269 355.8986   4.1818 15.63704787179716
CYGNUS NG-20            
1 58898U 24021A   24190.54461732  .00011798  00000+0  21655-3 0  9992
2 58898  51.6365 209.5245 0010259  43.7962 316.3838 15.49672255 24331
PROGRESS-MS 26          
1 58961U 24029A   24190.54461732  .00011798  00000+0  21655-3 0  9991
2 58961  51.6365 209.5245 0010259  43.7962 316.3838 15.49672255461089
CREW DRAGON 8           
1 59097U 24042A   24190.54461732  .00011798  00000+0  21655-3 0  9997
2 59097  51.6365 209.5245 0010259  43.7962 316.3838 15.49672255461080
SOYUZ-MS 25             
1 59294U 24055A   24190.54461732  .00011798  00000+0  21655-3 0  9990
2 59294  51.6365 209.5245 0010259  43.7962 316.3838 15.49672255 16445
MICROORBITER-1          
1 59483U 98067WF  24191.51019159  .00153584  00000+0  11231-2 0  9992
2 59483  51.6288 197.9460 0011501  35.3186 324.8572 15.72133806 13989
CURTIS                  
1 59507U 98067WG  24191.31643618  .00092162  00000+0  86599-3 0  9994
2 59507  51.6292 200.4084 0008962  33.5005 326.6556 15.66332346 13941
KASHIWA                 
1 59508U 98067WH  24191.44206134  .00206523  00000+0  12844-2 0  9996
2 59508  51.6262 197.4762 0012368  36.9959 323.1891 15.75710812 13994
1998-067WJ              
1 59559U 98067WJ  24191.18975115  .00082273  00000+0  82339-3 0  9996
2 59559  51.6319 201.8309 0008655  16.4721 343.6553 15.64805706 12787
1998-067WK              
1 59560U 98067WK  24191.47698904  .00307466  00000+0  15766-2 0  9991
2 59560  51.6261 196.9638 0013834  27.0289 333.1430 15.79720727 12790
1998-067WL              
1 59561U 98067WL  24191.36645758  .00035025  00000+0  46696-3 0  9995
2 59561  51.6332 203.0135 0005854  22.7533 337.3718 15.57754850 12750
BURSTCUBE               
1 59562U 98067WM  24191.12545544  .00069736  00000+0  69466-3 0  9998
2 59562  51.6325 202.1542 0009169  36.3264 323.8352 15.64986324 12755
SNOOPI                  
1 59563U 98067WN  24191.11537430  .00064351  00000+0  70056-3 0  9998
2 59563  51.6341 202.8425 0008047  37.2238 322.9312 15.62775565 12731
SHENZHOU-18 (SZ-18)     
1 59591U 24078A   24190.63730000  .00032368  00000+0  33912-3 0  9997
2 59591  41.4689 312.1877 0004269 355.8986   4.1818 15.63704787  8814
1998-067WP              
1 59596U 98067WP  24191.16481595  .00121804  00000+0  10304-2 0  9995
2 59596  51.6306 200.9059 0010273  21.4866 338.6560 15.68775116 12801
1998-067WQ              
1 59597U 98067WQ  24191.22373711  .00120850  00000+0  10130-2 0  9990
2 59597  51.6339 200.5654 0010431  21.7325 338.4113 15.68999606 12785
SZ-17 MODULE            
1 59624U 23164C   24190.77197288  .00039564  00000+0  36084-3 0  9997
2 59624  41.4774 310.6008 0006176  33.0773 327.0454 15.67092601 10920
PROGRESS-MS 27          
1 59913U 24103A   24190.54461732  .00011798  00000+0  21655-3 0  9992
2 59913  51.6365 209.5245 0010259  43.7962 316.3838 15.49672255  6048
STARLINER CFT-1         
1 59968U 24109A   24190.54461732  .00011798  00000+0  21655-3 0  9998
2 59968  51.6365 209.5245 0010259  43.7962 316.3838 15.49672255  4642
